IRIDIUM 36 [-]          
1 24967U 97056C   24037.90914235  .00000777  00000+0  25759-3 0  9995
2 24967  86.3971  21.3692 0002221  92.2040 267.9412 14.36614064380941
IRIDIUM 39 [-]          
1 25042U 97069D   24037.55615791  .00000936  00000+0  24778-3 0  9997
2 25042  86.3872  63.8748 0019147 157.2286 202.9771 14.47667009377074
IRIDIUM 38 [-]          
1 25043U 97069E   24037.60956043  .00000549  00000+0  17842-3 0  9996
2 25043  86.3917  81.9583 0001242  21.7471 338.3779 14.37079728374614
IRIDIUM 42 [-]          
1 25077U 97077A   24037.64644353  .00000515  00000+0  17275-3 0  9997
2 25077  86.3926  87.5108 0001629  82.5336 277.6045 14.35376435369944
IRIDIUM 44 [-]          
1 25078U 97077B   24037.60888099  .00000658  00000+0  20600-3 0  9995
2 25078  86.3909  70.7709 0001800 145.1990 214.9326 14.39191479372251
IRIDIUM 45 [-]          
1 25104U 97082A   24037.69557492  .00016383  00000+0  99638-3 0  9999
2 25104  86.3746 283.7968 0171226 357.3582   2.6725 14.98804908377137
IRIDIUM 24 [-]          
1 25105U 97082B   24037.78951784  .00000632  00000+0  19076-3 0  9990
2 25105  86.3903 290.5235 0009436 279.5413  80.4720 14.40970165371709
IRIDIUM 51 [-]          
1 25262U 98018A   24037.79406780  .00018833  00000+0  97682-3 0  9997
2 25262  86.3966 293.9549 0153223 306.5260  52.1945 15.06324945371608
